{
  "links" : {
    "next" : "https://api.nasa.gov/neo/rest/v1/feed?start_date=2014-07-16&end_date=2014-07-16&detailed=true&api_key=t0TVs3DtDT2H8Oy2Zy8m2eVrNsAVKAexjcZXUckd",
    "prev" : "https://api.nasa.gov/neo/rest/v1/feed?start_date=2014-07-14&end_date=2014-07-14&detailed=true&api_key=t0TVs3DtDT2H8Oy2Zy8m2eVrNsAVKAexjcZXUckd",
    "self" : "https://api.nasa.gov/neo/rest/v1/feed?start_date=2014-07-15&end_date=2014-07-15&detailed=true&api_key=t0TVs3DtDT2H8Oy2Zy8m2eVrNsAVKAexjcZXUckd"
  },
  "element_count" : 5,
  "near_earth_objects" : {
    "2014-07-15" : [ {
      "links" : {
        "self" : "https://api.nasa.gov/neo/rest/v1/neo/3678250?api_key=t0TVs3DtDT2H8Oy2Zy8m2eVrNsAVKAexjcZXUckd"
      },
      "neo_reference_id" : "3678250",
      "name" : "(2014 OD300)",
      "nasa_jpl_url" : "http://ssd.jpl.nasa.gov/sbdb.cgi?sstr=3678250",
      "absolute_magnitude_h" : 20.8,
      "estimated_diameter" : {
        "kilometers" : {
          "estimated_diameter_min" : 0.1838886721,
          "estimated_diameter_max" : 0.411187571
        },
        "meters" : {
          "estimated_diameter_min" : 183.8886720703,
          "estimated_diameter_max" : 411.1875710413
        },
        "miles" : {
          "estimated_diameter_min" : 0.1142630881,
          "estimated_diameter_max" : 0.2555000322
        },
        "feet" : {
          "estimated_diameter_min" : 603.309310875,
          "estimated_diameter_max" : 1349.040630575
        }
      },
      "is_potentially_hazardous_asteroid" : false,
      "close_approach_data" : [ {
        "close_approach_date" : "2014-07-15",
        "epoch_date_close_approach" : 1405407600000,
        "relative_velocity" : {
          "kilometers_per_second" : "7.8370369522",
          "kilometers_per_hour" : "28213.3330278934",
          "miles_per_hour" : "17530.6679583596"
        },
        "miss_distance" : {
          "astronomical" : "0.3151900644",
          "lunar" : "122.6089401245",
          "kilometers" : "47151764",
          "miles" : "29298748"
        },
        "orbiting_body" : "Earth"
      } ],
      "orbital_data" : {
        "orbit_id" : "16",
        "orbit_determination_date" : "2017-04-06 08:39:28",
        "orbit_uncertainty" : "5",
        "minimum_orbit_intersection" : ".172107",
        "jupiter_tisserand_invariant" : "3.405",
        "epoch_osculation" : "2458000.5",
        "eccentricity" : ".4892136658773926",
        "semi_major_axis" : "2.318968141717032",
        "inclination" : "4.165986445923542",
        "ascending_node_longitude" : "326.2258033990802",
        "orbital_period" : "1289.854135103316",
        "perihelion_distance" : "1.184497236054758",
        "perihelion_argument" : "334.3831956853458",
        "aphelion_distance" : "3.453439047379307",
        "perihelion_time" : "2458136.361224381976",
        "mean_anomaly" : "322.0809520654878",
        "mean_motion" : ".2791013264233668",
        "equinox" : "J2000"
      }
    }, {
      "links" : {
        "self" : "https://api.nasa.gov/neo/rest/v1/neo/3780807?api_key=t0TVs3DtDT2H8Oy2Zy8m2eVrNsAVKAexjcZXUckd"
      },
      "neo_reference_id" : "3780807",
      "name" : "(2017 QR16)",
      "nasa_jpl_url" : "http://ssd.jpl.nasa.gov/sbdb.cgi?sstr=3780807",
      "absolute_magnitude_h" : 22.758,
      "estimated_diameter" : {
        "kilometers" : {
          "estimated_diameter_min" : 0.0746371378,
          "estimated_diameter_max" : 0.1668937138
        },
        "meters" : {
          "estimated_diameter_min" : 74.6371377933,
          "estimated_diameter_max" : 166.8937137519
        },
        "miles" : {
          "estimated_diameter_min" : 0.0463773529,
          "estimated_diameter_max" : 0.1037029138
        },
        "feet" : {
          "estimated_diameter_min" : 244.8725071579,
          "estimated_diameter_max" : 547.5515718259
        }
      },
      "is_potentially_hazardous_asteroid" : false,
      "close_approach_data" : [ {
        "close_approach_date" : "2014-07-15",
        "epoch_date_close_approach" : 1405407600000,
        "relative_velocity" : {
          "kilometers_per_second" : "8.1481225017",
          "kilometers_per_hour" : "29333.2410062852",
          "miles_per_hour" : "18226.5352241554"
        },
        "miss_distance" : {
          "astronomical" : "0.1310155473",
          "lunar" : "50.9650497437",
          "kilometers" : "19599648",
          "miles" : "12178657"
        },
        "orbiting_body" : "Earth"
      } ],
      "orbital_data" : {
        "orbit_id" : "7",
        "orbit_determination_date" : "2017-09-12 06:20:29",
        "orbit_uncertainty" : "7",
        "minimum_orbit_intersection" : ".0142626",
        "jupiter_tisserand_invariant" : "4.926",
        "epoch_osculation" : "2458000.5",
        "eccentricity" : ".2165784553961788",
        "semi_major_axis" : "1.310380439430629",
        "inclination" : "12.77656069194936",
        "ascending_node_longitude" : "275.9250575018946",
        "orbital_period" : "547.8914576166085",
        "perihelion_distance" : "1.026580267877377",
        "perihelion_argument" : "12.19094694089671",
        "aphelion_distance" : "1.59418061098388",
        "perihelion_time" : "2457950.969248506416",
        "mean_anomaly" : "32.54489605524692",
        "mean_motion" : ".6570644513532696",
        "equinox" : "J2000"
      }
    } ]
  }
}